[{"OBJECT_NAME":"STARLINK-35282","OBJECT_ID":"2025-211G","EPOCH":"2026-03-09T16:56:07.373760","MEAN_MOTION":15.05636331,"ECCENTRICITY":0.00013166,"INCLINATION":97.602,"RA_OF_ASC_NODE":114.0713,"ARG_OF_PERICENTER":98.4023,"MEAN_ANOMALY":261.7353,"EPHEMERIS_TYPE":0,"CLASSIFICATION_TYPE":"U","NORAD_CAT_ID":65658,"ELEMENT_SET_NO":999,"REV_AT_EPOCH":2704,"BSTAR":-0.00024418643,"MEAN_MOTION_DOT":-3.581e-5,"MEAN_MOTION_DDOT":0},{"OBJECT_NAME":"SL-18 R\/B","OBJECT_ID":"2001-007B","EPOCH":"2026-03-09T23:25:11.323200","MEAN_MOTION":15.07301441,"ECCENTRICITY":0.00085554,"INCLINATION":97.6926,"RA_OF_ASC_NODE":87.6817,"ARG_OF_PERICENTER":353.225,"MEAN_ANOMALY":6.886,"EPHEMERIS_TYPE":0,"CLASSIFICATION_TYPE":"U","NORAD_CAT_ID":26703,"ELEMENT_SET_NO":999,"REV_AT_EPOCH":64619,"BSTAR":0.00021543689,"MEAN_MOTION_DOT":3.19e-5,"MEAN_MOTION_DDOT":0}]
